{"type": "FeatureCollection", "features": [ {"type": "Feature", "properties": {"norad_id": 36995, "name": "FENGYUN 1C DEB", "group": "fengyun-1c-debris", "lat": 20.391468651718572, "lon": 61.267830503845396, "alt_km": 887.2334351859645, "timestamp": "2025-12-26T12:57:39.561627+00:00", "meta": {"OBJECT_NAME": "FENGYUN 1C DEB", "OBJECT_ID": "1999-025ECB", "EPOCH": "2025-12-21T10:50:27.809664", "MEAN_MOTION": 14.04870407, "ECCENTRICITY": 0.00383848, "INCLINATION": 98.3428, "RA_OF_ASC_NODE": 233.4615, "ARG_OF_PERICENTER": 285.703, "MEAN_ANOMALY": 73.9907, "EPHEMERIS_TYPE": 0, "CLASSIFICATION_TYPE": "U", "NORAD_CAT_ID": 36995, "ELEMENT_SET_NO": 999, "REV_AT_EPOCH": 63679, "BSTAR": 0.0002276039, "MEAN_MOTION_DOT": 3.29e-06, "MEAN_MOTION_DDOT": 0}, "tle": {"line1": "1 36995U 99025ECB 25355.45171076  .00000329  00000+0  22760-3 0  9991", "line2": "2 36995  98.3428 233.4615 0038384 285.7030  73.9907 14.04870407636794"}}, "geometry": {"type": "Point", "coordinates": [61.267830503845396, 20.391468651718572]}}, {"type": "Feature", "properties": {"norad_id": 36996, "name": "FENGYUN 1C DEB", "group": "fengyun-1c-debris", "lat": -56.659435736434354, "lon": -41.05173779652893, "alt_km": 798.4545901072852, "timestamp": "2025-12-26T12:57:39.561637+00:00", "meta": {"OBJECT_NAME": "FENGYUN 1C DEB", "OBJECT_ID": "1999-025ECC", "EPOCH": "2025-12-26T05:36:21.178944", "MEAN_MOTION": 14.11586953, "ECCENTRICITY": 0.02548996, "INCLINATION": 98.2295, "RA_OF_ASC_NODE": 151.3743, "ARG_OF_PERICENTER": 309.9457, "MEAN_ANOMALY": 173.8447, "EPHEMERIS_TYPE": 0, "CLASSIFICATION_TYPE": "U", "NORAD_CAT_ID": 36996, "ELEMENT_SET_NO": 999, "REV_AT_EPOCH": 59882, "BSTAR": 0.000960644, "MEAN_MOTION_DOT": 2.326e-05, "MEAN_MOTION_DDOT": 0}, "tle": {"line1": "1 36996U 99025ECC 25360.23357846  .00002326  00000+0  96064-3 0  9992", "line2": "2 36996  98.2295 151.3743 0254899 309.9457 173.8447 14.11586953598827"}}, "geometry": {"type": "Point", "coordinates": [-41.05173779652893, -56.659435736434354]}}, {"type": "Feature", "properties": {"norad_id": 37003, "name": "FENGYUN 1C DEB", "group": "fengyun-1c-debris", "lat": -70.82754597223149, "lon": 177.01717972659935, "alt_km": 957.5213654824893, "timestamp": "2025-12-26T12:57:39.561647+00:00", "meta": {"OBJECT_NAME": "FENGYUN 1C DEB", "OBJECT_ID": "1999-025ECK", "EPOCH": "2025-12-18T07:48:02.434752", "MEAN_MOTION": 13.96231437, "ECCENTRICITY": 0.00968579, "INCLINATION": 98.8458, "RA_OF_ASC_NODE": 15.7304, "ARG_OF_PERICENTER": 147.1253, "MEAN_ANOMALY": 235.2095, "EPHEMERIS_TYPE": 0, "CLASSIFICATION_TYPE": "U", "NORAD_CAT_ID": 37003, "ELEMENT_SET_NO": 999, "REV_AT_EPOCH": 60735, "BSTAR": 0.00036300048, "MEAN_MOTION_DOT": 4.78e-06, "MEAN_MOTION_DDOT": 0}, "tle": {"line1": "1 37003U 99025ECK 25352.32502818  .00000478  00000+0  36300-3 0  9997", "line2": "2 37003  98.8458  15.7304 0096857 147.1253 235.2095 13.96231437607351"}}, "geometry": {"type": "Point", "coordinates": [177.01717972659935, -70.82754597223149]}}, {"type": "Feature", "properties": {"norad_id": 37006, "name": "FENGYUN 1C DEB", "group": "fengyun-1c-debris", "lat": -46.88483454666971, "lon": -99.40546123908882, "alt_km": 779.3952209282188, "timestamp": "2025-12-26T12:57:39.561657+00:00", "meta": {"OBJECT_NAME": "FENGYUN 1C DEB", "OBJECT_ID": "1999-025ECN", "EPOCH": "2025-12-23T10:36:30.026880", "MEAN_MOTION": 14.48972917, "ECCENTRICITY": 0.02551791, "INCLINATION": 99.298, "RA_OF_ASC_NODE": 247.1031, "ARG_OF_PERICENTER": 216.2092, "MEAN_ANOMALY": 142.159, "EPHEMERIS_TYPE": 0, "CLASSIFICATION_TYPE": "U", "NORAD_CAT_ID": 37006, "ELEMENT_SET_NO": 999, "REV_AT_EPOCH": 65269, "BSTAR": 0.00065687937, "MEAN_MOTION_DOT": 3.705e-05, "MEAN_MOTION_DDOT": 0}, "tle": {"line1": "1 37006U 99025ECN 25357.44201420  .00003705  00000+0  65688-3 0  9990", "line2": "2 37006  99.2980 247.1031 0255179 216.2092 142.1590 14.48972917652696"}}, "geometry": {"type": "Point", "coordinates": [-99.40546123908882, -46.88483454666971]}}, {"type": "Feature", "properties": {"norad_id": 37008, "name": "FENGYUN 1C DEB", "group": "fengyun-1c-debris", "lat": 61.7815236640299, "lon": -42.99542736143759, "alt_km": 866.949519489167, "timestamp": "2025-12-26T12:57:39.561667+00:00", "meta": {"OBJECT_NAME": "FENGYUN 1C DEB", "OBJECT_ID": "1999-025ECQ", "EPOCH": "2025-12-25T19:20:52.190304", "MEAN_MOTION": 14.07978939, "ECCENTRICITY": 0.0062838, "INCLINATION": 99.1352, "RA_OF_ASC_NODE": 118.8133, "ARG_OF_PERICENTER": 217.661, "MEAN_ANOMALY": 142.015, "EPHEMERIS_TYPE": 0, "CLASSIFICATION_TYPE": "U", "NORAD_CAT_ID": 37008, "ELEMENT_SET_NO": 999, "REV_AT_EPOCH": 60498, "BSTAR": 0.00099857, "MEAN_MOTION_DOT": 1.682e-05, "MEAN_MOTION_DDOT": 0}, "tle": {"line1": "1 37008U 99025ECQ 25359.80615961  .00001682  00000+0  99857-3 0  9990", "line2": "2 37008  99.1352 118.8133 0062838 217.6610 142.0150 14.07978939604981"}}, "geometry": {"type": "Point", "coordinates": [-42.99542736143759, 61.7815236640299]}}, {"type": "Feature", "properties": {"norad_id": 37017, "name": "FENGYUN 1C DEB", "group": "fengyun-1c-debris", "lat": -81.09812562637141, "lon": 44.302907337073655, "alt_km": 645.6324122700944, "timestamp": "2025-12-26T12:57:39.561678+00:00", "meta": {"OBJECT_NAME": "FENGYUN 1C DEB", "OBJECT_ID": "1999-025ECZ", "EPOCH": "2025-12-25T14:01:57.704160", "MEAN_MOTION": 14.40919347, "ECCENTRICITY": 0.0281, "INCLINATION": 98.792, "RA_OF_ASC_NODE": 304.4725, "ARG_OF_PERICENTER": 327.0532, "MEAN_ANOMALY": 31.341, "EPHEMERIS_TYPE": 0, "CLASSIFICATION_TYPE": "U", "NORAD_CAT_ID": 37017, "ELEMENT_SET_NO": 999, "REV_AT_EPOCH": 61346, "BSTAR": 0.0020644, "MEAN_MOTION_DOT": 0.00010567, "MEAN_MOTION_DDOT": 0}, "tle": {"line1": "1 37017U 99025ECZ 25359.58469565  .00010567  00000+0  20644-2 0  9991", "line2": "2 37017  98.7920 304.4725 0281000 327.0532  31.3410 14.40919347613467"}}, "geometry": {"type": "Point", "coordinates": [44.302907337073655, -81.09812562637141]}}, {"type": "Feature", "properties": {"norad_id": 37021, "name": "FENGYUN 1C DEB", "group": "fengyun-1c-debris", "lat": -45.50579041046746, "lon": 25.399409132291606, "alt_km": 817.136754850485, "timestamp": "2025-12-26T12:57:39.561688+00:00", "meta": {"OBJECT_NAME": "FENGYUN 1C DEB", "OBJECT_ID": "1999-025EDD", "EPOCH": "2025-12-26T06:46:16.179744", "MEAN_MOTION": 14.3232966, "ECCENTRICITY": 0.01759924, "INCLINATION": 98.3848, "RA_OF_ASC_NODE": 16.5161, "ARG_OF_PERICENTER": 211.6097, "MEAN_ANOMALY": 211.2518, "EPHEMERIS_TYPE": 0, "CLASSIFICATION_TYPE": "U", "NORAD_CAT_ID": 37021, "ELEMENT_SET_NO": 999, "REV_AT_EPOCH": 70248, "BSTAR": 0.00068524015, "MEAN_MOTION_DOT": 2.15e-05, "MEAN_MOTION_DDOT": 0}, "tle": {"line1": "1 37021U 99025EDD 25360.28213171  .00002150  00000+0  68524-3 0  9994", "line2": "2 37021  98.3848  16.5161 0175992 211.6097 211.2518 14.32329660702481"}}, "geometry": {"type": "Point", "coordinates": [25.399409132291606, -45.50579041046746]}}, {"type": "Feature", "properties": {"norad_id": 37028, "name": "FENGYUN 1C DEB", "group": "fengyun-1c-debris", "lat": -29.11036114347718, "lon": 83.73634858748909, "alt_km": 842.87129222373, "timestamp": "2025-12-26T12:57:39.561698+00:00", "meta": {"OBJECT_NAME": "FENGYUN 1C DEB", "OBJECT_ID": "1999-025EDL", "EPOCH": "2025-12-25T00:32:25.103328", "MEAN_MOTION": 14.22825212, "ECCENTRICITY": 0.00343044, "INCLINATION": 99.2462, "RA_OF_ASC_NODE": 267.3486, "ARG_OF_PERICENTER": 64.0636, "MEAN_ANOMALY": 296.4069, "EPHEMERIS_TYPE": 0, "CLASSIFICATION_TYPE": "U", "NORAD_CAT_ID": 37028, "ELEMENT_SET_NO": 999, "REV_AT_EPOCH": 60650, "BSTAR": 0.0018913488, "MEAN_MOTION_DOT": 4.225e-05, "MEAN_MOTION_DDOT": 0}, "tle": {"line1": "1 37028U 99025EDL 25359.02251277  .00004225  00000+0  18913-2 0  9991", "line2": "2 37028  99.2462 267.3486 0034304  64.0636 296.4069 14.22825212606501"}}, "geometry": {"type": "Point", "coordinates": [83.73634858748909, -29.11036114347718]}}, {"type": "Feature", "properties": {"norad_id": 37036, "name": "FENGYUN 1C DEB", "group": "fengyun-1c-debris", "lat": 78.50729198927738, "lon": -138.3310548209775, "alt_km": 858.4931722880838, "timestamp": "2025-12-26T12:57:39.561708+00:00", "meta": {"OBJECT_NAME": "FENGYUN 1C DEB", "OBJECT_ID": "1999-025EDU", "EPOCH": "2025-12-26T05:39:48.292704", "MEAN_MOTION": 14.03583537, "ECCENTRICITY": 0.01239559, "INCLINATION": 98.7147, "RA_OF_ASC_NODE": 352.4063, "ARG_OF_PERICENTER": 17.6155, "MEAN_ANOMALY": 342.9254, "EPHEMERIS_TYPE": 0, "CLASSIFICATION_TYPE": "U", "NORAD_CAT_ID": 37036, "ELEMENT_SET_NO": 999, "REV_AT_EPOCH": 63937, "BSTAR": 0.00030253283, "MEAN_MOTION_DOT": 4.66e-06, "MEAN_MOTION_DDOT": 0}, "tle": {"line1": "1 37036U 99025EDU 25360.23597561  .00000466  00000+0  30253-3 0  9999", "line2": "2 37036  98.7147 352.4063 0123955  17.6155 342.9254 14.03583537639376"}}, "geometry": {"type": "Point", "coordinates": [-138.3310548209775, 78.50729198927738]}}, {"type": "Feature", "properties": {"norad_id": 37044, "name": "FENGYUN 1C DEB", "group": "fengyun-1c-debris", "lat": 54.03036171793482, "lon": 93.21758876097554, "alt_km": 845.9965634004511, "timestamp": "2025-12-26T12:57:39.561719+00:00", "meta": {"OBJECT_NAME": "FENGYUN 1C DEB", "OBJECT_ID": "1999-025EEC", "EPOCH": "2025-12-26T02:10:55.630560", "MEAN_MOTION": 13.71034529, "ECCENTRICITY": 0.05062, "INCLINATION": 98.9617, "RA_OF_ASC_NODE": 105.3546, "ARG_OF_PERICENTER": 126.1701, "MEAN_ANOMALY": 238.7382, "EPHEMERIS_TYPE": 0, "CLASSIFICATION_TYPE": "U", "NORAD_CAT_ID": 37044, "ELEMENT_SET_NO": 999, "REV_AT_EPOCH": 84041, "BSTAR": 0.0033300776, "MEAN_MOTION_DOT": 7.423e-05, "MEAN_MOTION_DDOT": 0}, "tle": {"line1": "1 37044U 99025EEC 25360.09092165  .00007423  00000+0  33301-2 0  9998", "line2": "2 37044  98.9617 105.3546 0506200 126.1701 238.7382 13.71034529840410"}}, "geometry": {"type": "Point", "coordinates": [93.21758876097554, 54.03036171793482]}}]}